GLOBALSTAR M063         
1 26081U 00008A   25034.52110122 -.00000139  00000+0 -82393-3 0  9995
2 26081  51.9955 103.6001 0004951  64.9474  41.3671 11.86166782141719
GLOBALSTAR M062         
1 26082U 00008B   25034.78810463 -.00000038  00000+0  43006-3 0  9994
2 26082  51.9843 128.0668 0007326 182.0057 327.2469 12.43459082480027
GLOBALSTAR M060         
1 26083U 00008C   25034.43670744 -.00000079  00000+0  11905-3 0  9991
2 26083  52.0021  70.1855 0003429 206.4916 261.5511 12.17652137136076
GLOBALSTAR M064         
1 26084U 00008D   25034.76147686 -.00000077  00000+0  88217-4 0  9991
2 26084  52.0000 203.3672 0002289 134.3186 225.7835 11.88529908151234
GLOBALSTAR M065         
1 31571U 07020A   25034.92049390 -.00000074  00000+0  16518-3 0  9991
2 31571  51.9885 271.8905 0010833  16.9510 356.2516 12.61990885816589
GLOBALSTAR M069         
1 31573U 07020C   25034.65728836 -.00000084  00000+0  10755-3 0  9990
2 31573  51.9923 235.1497 0001976  63.9901 326.2930 12.47307485817565
GLOBALSTAR M072         
1 31574U 07020D   25034.33635799 -.00000063  00000+0  28212-3 0  9995
2 31574  52.0107 348.2763 0001248  69.5792  98.4077 11.91772452815506
GLOBALSTAR M071         
1 31576U 07020F   25034.90090606 -.00000006  00000+0  83838-3 0  9994
2 31576  52.0034 244.3152 0001123 122.9149  10.2648 12.18248225478694
